{
  "norad_id": 59414,
  "name": "STARLINK-31457",
  "history": [
    {
      "epoch": "2026-03-28T21:45:35.843040Z",
      "apogee_km": 483.91964627395737,
      "perigee_km": 482.1508360701837,
      "latitude_deg": 1.3306797055585529e-05,
      "longitude_deg": 148.07318260560137,
      "height_km": 482.6378536079413,
      "semi_major_axis_km": 6861.17224117207,
      "eccentricity": 0.0001289,
      "inclination_deg": 43.0033,
      "raan_deg": 300.7929,
      "arg_perigee_deg": 281.3707,
      "mean_anomaly_deg": 78.7,
      "mean_motion_rev_day": 15.27584627
    },
    {
      "epoch": "2026-03-29T22:52:07.307040Z",
      "apogee_km": 484.5804196968211,
      "perigee_km": 481.56848509344854,
      "latitude_deg": 1.3276050067383507e-05,
      "longitude_deg": 124.50290370887164,
      "height_km": 482.53374275928,
      "semi_major_axis_km": 6861.211452395134,
      "eccentricity": 0.00021949,
      "inclination_deg": 43.0059,
      "raan_deg": 294.8849,
      "arg_perigee_deg": 282.2173,
      "mean_anomaly_deg": 77.8433,
      "mean_motion_rev_day": 15.27571532
    },
    {
      "epoch": "2026-03-30T06:42:58.180320Z",
      "apogee_km": 484.18810640725496,
      "perigee_km": 482.19283237915533,
      "latitude_deg": -1.7260165018959225e-05,
      "longitude_deg": 4.623115563831502,
      "height_km": 482.55320556108785,
      "semi_major_axis_km": 6861.327469393204,
      "eccentricity": 0.0001454,
      "inclination_deg": 42.9958,
      "raan_deg": 293.0394,
      "arg_perigee_deg": 65.6839,
      "mean_anomaly_deg": 294.4164,
      "mean_motion_rev_day": 15.27532788
    },
    {
      "epoch": "2026-03-30T22:24:28.574784Z",
      "apogee_km": 483.85727449487695,
      "perigee_km": 482.2698671308144,
      "latitude_deg": -4.6421429309034755e-06,
      "longitude_deg": 124.91084782788397,
      "height_km": 482.14285398272,
      "semi_major_axis_km": 6861.200570812845,
      "eccentricity": 0.00011568,
      "inclination_deg": 43.002,
      "raan_deg": 289.3482,
      "arg_perigee_deg": 331.42,
      "mean_anomaly_deg": 28.6588,
      "mean_motion_rev_day": 15.27575166
    },
    {
      "epoch": "2026-03-31T14:06:01.429056Z",
      "apogee_km": 483.84020782943117,
      "perigee_km": 482.2991808058878,
      "latitude_deg": -5.997869445472731e-05,
      "longitude_deg": -114.81306949211967,
      "height_km": 482.337476172964,
      "semi_major_axis_km": 6861.206694317659,
      "eccentricity": 0.0001123,
      "inclination_deg": 43.002,
      "raan_deg": 285.6557,
      "arg_perigee_deg": 311.3198,
      "mean_anomaly_deg": 48.7556,
      "mean_motion_rev_day": 15.27573121
    },
    {
      "epoch": "2026-04-01T19:54:59.657760Z",
      "apogee_km": 484.30954997298886,
      "perigee_km": 481.7160353513618,
      "latitude_deg": 1.3865262005087636e-05,
      "longitude_deg": 149.69968447168037,
      "height_km": 482.6857230057356,
      "semi_major_axis_km": 6861.149792662175,
      "eccentricity": 0.000189,
      "inclination_deg": 43.0055,
      "raan_deg": 278.6355,
      "arg_perigee_deg": 274.6347,
      "mean_anomaly_deg": 85.4289,
      "mean_motion_rev_day": 15.27592124
    },
    {
      "epoch": "2026-04-02T19:27:18.273888Z",
      "apogee_km": 483.8161527867551,
      "perigee_km": 481.7976630890398,
      "latitude_deg": 2.7130708297781662e-05,
      "longitude_deg": 150.1151401640133,
      "height_km": 482.7553793756441,
      "semi_major_axis_km": 6860.943907937897,
      "eccentricity": 0.0001471,
      "inclination_deg": 43.004,
      "raan_deg": 273.0952,
      "arg_perigee_deg": 260.2268,
      "mean_anomaly_deg": 99.8418,
      "mean_motion_rev_day": 15.27660885
    },
    {
      "epoch": "2026-04-02T21:01:27.815232Z",
      "apogee_km": 483.69182534399624,
      "perigee_km": 482.03352172290306,
      "latitude_deg": 5.024071328210144e-05,
      "longitude_deg": 126.14185969099545,
      "height_km": 483.0262795578564,
      "semi_major_axis_km": 6860.999673533449,
      "eccentricity": 0.00012085,
      "inclination_deg": 43.004,
      "raan_deg": 272.7261,
      "arg_perigee_deg": 242.1921,
      "mean_anomaly_deg": 117.8809,
      "mean_motion_rev_day": 15.2764226
    }
  ]
}